start=new Date('2022-02-15T00:00:00.000Z').valueOf();
sats=[{"BSTAR":"-0.00006605800000","OBJECT_NAME":"STARLINK-2102","FILE":"3300727","MEAN_MOTION_DDOT":"0.0000000000000","PERIOD":"95.593","SEMIMAJOR_AXIS":"6925.368","CENTER_NAME":"EARTH","OBJECT_TYPE":"PAYLOAD","TLE_LINE1":"1 47382U 21005AK  22045.74716498 -.00001265  00000-0 -66058-4 0  9996","LAUNCH_DATE":"2021-01-20","REV_AT_EPOCH":"5979","MEAN_MOTION_DOT":"-0.00001265","PERIAPSIS":"546.191","RCS_SIZE":"LARGE","OBJECT_ID":"2021-005AK","ECCENTRICITY":"0.00015050","NORAD_CAT_ID":"47382","CLASSIFICATION_TYPE":"U","TIME_SYSTEM":"UTC","COUNTRY_CODE":"US","EPHEMERIS_TYPE":"0","EPOCH":"2022-02-14T17:55:55.054272","MEAN_ANOMALY":"292.1654","DECAY_DATE":null,"RA_OF_ASC_NODE":"213.2901","GP_ID":"195966043","TLE_LINE2":"2 47382  53.0535 213.2901 0001505  67.9494 292.1654 15.06393647 59798","APOAPSIS":"548.275","SITE":"AFETR","REF_FRAME":"TEME","MEAN_MOTION":"15.06393647","ELEMENT_SET_NO":"999","INCLINATION":"53.0535","MEAN_ELEMENT_THEORY":"SGP4","ARG_OF_PERICENTER":"67.9494"},{"ELEMENT_SET_NO":"999","INCLINATION":"53.0546","MEAN_ELEMENT_THEORY":"SGP4","ARG_OF_PERICENTER":"73.0043","DECAY_DATE":null,"GP_ID":"195966293","RA_OF_ASC_NODE":"203.2151","TLE_LINE2":"2 47383  53.0546 203.2151 0001720  73.0043 287.1134 15.06393481 59944","APOAPSIS":"548.425","SITE":"AFETR","REF_FRAME":"TEME","MEAN_MOTION":"15.06393481","COUNTRY_CODE":"US","TIME_SYSTEM":"UTC","EPHEMERIS_TYPE":"0","EPOCH":"2022-02-14T18:22:25.572864","MEAN_ANOMALY":"287.1134","NORAD_CAT_ID":"47383","CLASSIFICATION_TYPE":"U","RCS_SIZE":"LARGE","OBJECT_ID":"2021-005AL","ECCENTRICITY":"0.00017200","TLE_LINE1":"1 47383U 21005AL  22045.76557376 -.00000732  00000-0 -30266-4 0  9997","LAUNCH_DATE":"2021-01-20","REV_AT_EPOCH":"5994","MEAN_MOTION_DOT":"-0.00000732","PERIAPSIS":"546.042","OBJECT_NAME":"STARLINK-2103","FILE":"3300727","MEAN_MOTION_DDOT":"0.0000000000000","SEMIMAJOR_AXIS":"6925.369","PERIOD":"95.593","CENTER_NAME":"EARTH","OBJECT_TYPE":"PAYLOAD","BSTAR":"-0.00003026600000"},{"FILE":"3300727","OBJECT_NAME":"STARLINK-2104","SEMIMAJOR_AXIS":"6925.390","PERIOD":"95.593","CENTER_NAME":"EARTH","OBJECT_TYPE":"PAYLOAD","MEAN_MOTION_DDOT":"0.0000000000000","BSTAR":"0.00000185460000","ECCENTRICITY":"0.00014490","RCS_SIZE":"LARGE","OBJECT_ID":"2021-005AM","REV_AT_EPOCH":"5980","LAUNCH_DATE":"2021-01-20","TLE_LINE1":"1 47384U 21005AM  22045.77571698 -.00000254  00000-0  18546-5 0  9998","PERIAPSIS":"546.252","MEAN_MOTION_DOT":"-0.00000254","MEAN_ANOMALY":"286.8562","TIME_SYSTEM":"UTC","COUNTRY_CODE":"US","EPHEMERIS_TYPE":"0","EPOCH":"2022-02-14T18:37:01.947072","NORAD_CAT_ID":"47384","CLASSIFICATION_TYPE":"U","ELEMENT_SET_NO":"999","ARG_OF_PERICENTER":"73.2586","INCLINATION":"53.0550","MEAN_ELEMENT_THEORY":"SGP4","RA_OF_ASC_NODE":"213.1774","GP_ID":"195967544","TLE_LINE2":"2 47384  53.0550 213.1774 0001449  73.2586 286.8562 15.06386357 59803","DECAY_DATE":null,"REF_FRAME":"TEME","MEAN_MOTION":"15.06386357","APOAPSIS":"548.259","SITE":"AFETR"},{"MEAN_MOTION_DOT":"0.00000676","PERIAPSIS":"546.150","TLE_LINE1":"1 47385U 21005AN  22045.72874271  .00000676  00000-0  64305-4 0  9997","LAUNCH_DATE":"2021-01-20","REV_AT_EPOCH":"5979","OBJECT_ID":"2021-005AN","RCS_SIZE":"LARGE","ECCENTRICITY":"0.00015570","BSTAR":"0.00006430500000","MEAN_MOTION_DDOT":"0.0000000000000","CENTER_NAME":"EARTH","OBJECT_TYPE":"PAYLOAD","PERIOD":"95.592","SEMIMAJOR_AXIS":"6925.363","OBJECT_NAME":"STARLINK-2105","FILE":"3300727","SITE":"AFETR","APOAPSIS":"548.307","REF_FRAME":"TEME","MEAN_MOTION":"15.06395174","DECAY_DATE":null,"TLE_LINE2":"2 47385  53.0532 213.3816 0001557  70.7404 289.3753 15.06395174 59799","RA_OF_ASC_NODE":"213.3816","GP_ID":"195967794","MEAN_ELEMENT_THEORY":"SGP4","INCLINATION":"53.0532","ARG_OF_PERICENTER":"70.7404","ELEMENT_SET_NO":"999","CLASSIFICATION_TYPE":"U","NORAD_CAT_ID":"47385","EPOCH":"2022-02-14T17:29:23.370144","TIME_SYSTEM":"UTC","COUNTRY_CODE":"US","EPHEMERIS_TYPE":"0","MEAN_ANOMALY":"289.3753"},{"BSTAR":"0.00005898200000","OBJECT_NAME":"STARLINK-2106","FILE":"3300727","MEAN_MOTION_DDOT":"0.0000000000000","PERIOD":"95.592","SEMIMAJOR_AXIS":"6925.364","OBJECT_TYPE":"PAYLOAD","CENTER_NAME":"EARTH","TLE_LINE1":"1 47386U 21005AP  22045.75822239  .00000597  00000-0  58982-4 0  9994","LAUNCH_DATE":"2021-01-20","REV_AT_EPOCH":"5980","MEAN_MOTION_DOT":"0.00000597","PERIAPSIS":"546.015","RCS_SIZE":"LARGE","OBJECT_ID":"2021-005AP","ECCENTRICITY":"0.00017520","NORAD_CAT_ID":"47386","CLASSIFICATION_TYPE":"U","COUNTRY_CODE":"US","TIME_SYSTEM":"UTC","EPHEMERIS_TYPE":"0","EPOCH":"2022-02-14T18:11:50.414496","MEAN_ANOMALY":"290.2101","DECAY_DATE":null,"RA_OF_ASC_NODE":"213.2526","GP_ID":"195966544","TLE_LINE2":"2 47386  53.0518 213.2526 0001752  69.9076 290.2101 15.06395075 59803","APOAPSIS":"548.442","SITE":"AFETR","REF_FRAME":"TEME","MEAN_MOTION":"15.06395075","ELEMENT_SET_NO":"999","INCLINATION":"53.0518","MEAN_ELEMENT_THEORY":"SGP4","ARG_OF_PERICENTER":"69.9076"},{"OBJECT_TYPE":"PAYLOAD","CENTER_NAME":"EARTH","PERIOD":"95.592","SEMIMAJOR_AXIS":"6925.364","MEAN_MOTION_DDOT":"0.0000000000000","FILE":"3300727","OBJECT_NAME":"STARLINK-2108","BSTAR":"-0.00002609200000","ECCENTRICITY":"0.00017560","OBJECT_ID":"2021-005AQ","RCS_SIZE":"LARGE","PERIAPSIS":"546.013","MEAN_MOTION_DOT":"-0.00000670","REV_AT_EPOCH":"5938","LAUNCH_DATE":"2021-01-20","TLE_LINE1":"1 47387U 21005AQ  22045.81076072 -.00000670  00000-0 -26092-4 0  9999","MEAN_ANOMALY":"286.5834","EPOCH":"2022-02-14T19:27:29.726208","COUNTRY_CODE":"US","TIME_SYSTEM":"UTC","EPHEMERIS_TYPE":"0","CLASSIFICATION_TYPE":"U","NORAD_CAT_ID":"47387","ARG_OF_PERICENTER":"73.5347","MEAN_ELEMENT_THEORY":"SGP4","INCLINATION":"53.0531","ELEMENT_SET_NO":"999","REF_FRAME":"TEME","MEAN_MOTION":"15.06394882","SITE":"AFETR","APOAPSIS":"548.445","TLE_LINE2":"2 47387  53.0531 243.0171 0001756  73.5347 286.5834 15.06394882 59381","GP_ID":"195966794","RA_OF_ASC_NODE":"243.0171","DECAY_DATE":null},{"OBJECT_ID":"2021-005AR","RCS_SIZE":"LARGE","ECCENTRICITY":"0.00017390","TLE_LINE1":"1 47388U 21005AR  22045.82550297 -.00003557  00000-0 -22003-3 0  9991","REV_AT_EPOCH":"5938","LAUNCH_DATE":"2021-01-20","MEAN_MOTION_DOT":"-0.00003557","PERIAPSIS":"546.009","OBJECT_NAME":"STARLINK-2109","FILE":"3300727","MEAN_MOTION_DDOT":"0.0000000000000","OBJECT_TYPE":"PAYLOAD","CENTER_NAME":"EARTH","PERIOD":"95.592","SEMIMAJOR_AXIS":"6925.348","BSTAR":"-0.00022003000000","ELEMENT_SET_NO":"999","MEAN_ELEMENT_THEORY":"SGP4","INCLINATION":"53.0532","ARG_OF_PERICENTER":"59.5878","DECAY_DATE":null,"TLE_LINE2":"2 47388  53.0532 242.9519 0001739  59.5878 300.5283 15.06400112 59380","GP_ID":"195967044","RA_OF_ASC_NODE":"242.9519","SITE":"AFETR","APOAPSIS":"548.418","REF_FRAME":"TEME","MEAN_MOTION":"15.06400112","EPOCH":"2022-02-14T19:48:43.456608","COUNTRY_CODE":"US","EPHEMERIS_TYPE":"0","TIME_SYSTEM":"UTC","MEAN_ANOMALY":"300.5283","NORAD_CAT_ID":"47388","CLASSIFICATION_TYPE":"U"},{"CLASSIFICATION_TYPE":"U","NORAD_CAT_ID":"47389","EPOCH":"2022-02-14T17:43:58.746432","TIME_SYSTEM":"UTC","COUNTRY_CODE":"US","EPHEMERIS_TYPE":"0","MEAN_ANOMALY":"285.4265","SITE":"AFETR","APOAPSIS":"548.302","MEAN_MOTION":"15.06395363","REF_FRAME":"TEME","DECAY_DATE":null,"TLE_LINE2":"2 47389  53.0563 223.3338 0001551  74.6895 285.4265 15.06395363 59658","RA_OF_ASC_NODE":"223.3338","GP_ID":"195967294","MEAN_ELEMENT_THEORY":"SGP4","INCLINATION":"53.0563","ARG_OF_PERICENTER":"74.6895","ELEMENT_SET_NO":"999","BSTAR":"0.00001615900000","MEAN_MOTION_DDOT":"0.0000000000000","CENTER_NAME":"EARTH","OBJECT_TYPE":"PAYLOAD","SEMIMAJOR_AXIS":"6925.363","PERIOD":"95.592","OBJECT_NAME":"STARLINK-2110","FILE":"3300727","MEAN_MOTION_DOT":"-0.00000041","PERIAPSIS":"546.154","TLE_LINE1":"1 47389U 21005AS  22045.73887438 -.00000041  00000-0  16159-4 0  9992","REV_AT_EPOCH":"5965","LAUNCH_DATE":"2021-01-20","OBJECT_ID":"2021-005AS","RCS_SIZE":"LARGE","ECCENTRICITY":"0.00015510"},{"MEAN_ANOMALY":"288.0117","COUNTRY_CODE":"US","TIME_SYSTEM":"UTC","EPHEMERIS_TYPE":"0","EPOCH":"2022-02-14T19:11:33.591840","CLASSIFICATION_TYPE":"U","NORAD_CAT_ID":"47390","ARG_OF_PERICENTER":"72.1045","INCLINATION":"53.0543","MEAN_ELEMENT_THEORY":"SGP4","ELEMENT_SET_NO":"999","MEAN_MOTION":"15.06395887","REF_FRAME":"TEME","APOAPSIS":"548.328","SITE":"AFETR","GP_ID":"195966044","RA_OF_ASC_NODE":"243.0560","TLE_LINE2":"2 47390  53.0543 243.0560 0001591  72.1045 288.0117 15.06395887 59384","DECAY_DATE":null,"PERIOD":"95.592","SEMIMAJOR_AXIS":"6925.361","CENTER_NAME":"EARTH","OBJECT_TYPE":"PAYLOAD","MEAN_MOTION_DDOT":"0.0000000000000","FILE":"3300727","OBJECT_NAME":"STARLINK-2111","BSTAR":"0.00006756500000","ECCENTRICITY":"0.00015910","RCS_SIZE":"LARGE","OBJECT_ID":"2021-005AT","PERIAPSIS":"546.124","MEAN_MOTION_DOT":"0.00000725","REV_AT_EPOCH":"5938","LAUNCH_DATE":"2021-01-20","TLE_LINE1":"1 47390U 21005AT  22045.79969435  .00000725  00000-0  67565-4 0  9993"},{"ARG_OF_PERICENTER":"72.4526","MEAN_ELEMENT_THEORY":"SGP4","INCLINATION":"53.0548","ELEMENT_SET_NO":"999","MEAN_MOTION":"15.06406084","REF_FRAME":"TEME","SITE":"AFETR","APOAPSIS":"548.332","TLE_LINE2":"2 47391  53.0548 213.3029 0001642  72.4526 287.6642 15.06406084 59799","RA_OF_ASC_NODE":"213.3029","GP_ID":"195966294","DECAY_DATE":null,"MEAN_ANOMALY":"287.6642","EPOCH":"2022-02-14T17:49:14.514240","COUNTRY_CODE":"US","EPHEMERIS_TYPE":"0","TIME_SYSTEM":"UTC","CLASSIFICATION_TYPE":"U","NORAD_CAT_ID":"47391","ECCENTRICITY":"0.00016420","OBJECT_ID":"2021-005AU","RCS_SIZE":"LARGE","PERIAPSIS":"546.058","MEAN_MOTION_DOT":"0.00002068","REV_AT_EPOCH":"5979","LAUNCH_DATE":"2021-01-20","TLE_LINE1":"1 47391U 21005AU  22045.74252910  .00002068  00000-0  15767-3 0  9990","OBJECT_TYPE":"PAYLOAD","CENTER_NAME":"EARTH","PERIOD":"95.592","SEMIMAJOR_AXIS":"6925.330","MEAN_MOTION_DDOT":"0.0000000000000","FILE":"3300727","OBJECT_NAME":"STARLINK-2112","BSTAR":"0.00015767000000"}];
